HAWK-5A                 
1 52757U 22057AB  26201.70059196  .00011764  00000+0  19411-3 0  9997
2 52757  97.6637   2.7481 0002943 311.2030  48.8967 15.52446178231546
HAWK-6B                 
1 55324U 23011A   26201.95170279  .00003129  00000+0  13769-3 0  9990
2 55324  40.4981 155.0908 0004596 269.6243  90.4040 15.23186358192990
HAWK-6C                 
1 55326U 23011C   26201.95106989  .00002985  00000+0  13170-3 0  9994
2 55326  40.4969 151.9297 0005097 264.2933  95.7295 15.23185777193005
HAWK-6A                 
1 55327U 23011D   26201.95110737  .00003066  00000+0  13507-3 0  9996
2 55327  40.4979 153.5573 0004774 261.3875  98.6394 15.23186278193005
HAWK-7A                 
1 56191U 23054P   26201.51924867  .00003230  00000+0  12214-3 0  9999
2 56191  97.2653  88.0088 0001005 294.4886  65.6248 15.27665267182116
HAWK-7B                 
1 56193U 23054R   26201.84668979  .00003448  00000+0  13019-3 0  9991
2 56193  97.2678  86.6037 0000678   2.8812 357.2431 15.27670128182169
HAWK-7C                 
1 56200U 23054Y   26201.84656117  .00003697  00000+0  13939-3 0  9998
2 56200  97.2656  87.3617 0000376 308.1724  51.9482 15.27669625182169
